sat44054
1 44054U 18084Q   20046.67048535  .00295825  00000-0  45298-2 0  9999
2 44054  97.8154 177.4774 0018387 255.1586 104.6296 15.53133405 56592
